OUFTI-1                 
1 41458U 16025C   22132.72234482  .00010830  00000+0  46601-3 0  9999
2 41458  98.1835 296.6293 0144488  27.0178 333.8479 15.13779990332173
E-ST@R-II               
1 41459U 16025D   22133.44121147  .00009378  00000+0  41269-3 0  9993
2 41459  98.1826 296.0264 0147190  28.6681 332.2546 15.12791472332205
AAUSAT 4                
1 41460U 16025E   22133.42513939  .00013678  00000+0  54082-3 0  9992
2 41460  98.1779 301.9037 0128358   5.8165 354.4551 15.18231026332625
AIST-2D (RS-48)         
1 41465U 16026B   22133.13609002  .00010975  00000+0  27182-3 0  9991
2 41465  97.0615  10.6750 0007734 258.6850 252.6823 15.40547117338090
NUSAT-1 (FRESCO)        
1 41557U 16033B   22133.55555462  .00012126  00000+0  37302-3 0  9992
2 41557  97.3852 231.2194 0012662 139.1902 320.5124 15.33738513332039
NUSAT-2 (BATATA)        
1 41558U 16033C   22133.56203058  .00011435  00000+0  33065-3 0  9999
2 41558  97.4043 236.7336 0011878 129.4471 330.4993 15.35720520332295
CARTOSAT-2C             
1 41599U 16040A   22133.50519350 -.00012333  00000+0 -58355-3 0  9990
2 41599  97.4902 193.4067 0012156 306.6867 161.7759 15.19166853326622
SATHYABAMASAT           
1 41600U 16040B   22133.14864170  .00018444  00000+0  60711-3 0  9992
2 41600  97.2239 186.4330 0010244 238.9137 121.1100 15.31499045327496
LAPAN-A3                
1 41603U 16040E   22133.57055943  .00001311  00000+0  62806-4 0  9995
2 41603  97.2096 172.1132 0011446 285.8737 227.4836 15.20560151326731
BIROS                   
1 41604U 16040F   22133.13958007  .00004276  00000+0  17899-3 0  9995
2 41604  97.2142 178.8707 0010054 254.7196 105.2930 15.24034000327083
SWAYAM                  
1 41607U 16040J   22132.88413768  .00016575  00000+0  55912-3 0  9992
2 41607  97.2193 184.5332 0010004 241.5430 118.4804 15.30731704327336
BEESAT-4                
1 41619U 16040W   22132.87843472  .00015112  00000+0  52141-3 0  9990
2 41619  97.2204 184.4764 0008489 233.6358 126.4100 15.30031146315287
3CAT-2                  
1 41732U 16051B   22133.58130876  .00010462  00000+0  33270-3 0  9999
2 41732  97.3816  56.7233 0013770  59.8515  66.2849 15.32702092319986
PRATHAM                 
1 41783U 16059A   22133.34945181  .00000418  00000+0  89473-4 0  9997
2 41783  97.9166 176.3046 0031994 285.4348  74.3321 14.63320242300493
ALSAT 1N                
1 41789U 16059G   22133.37259070  .00000458  00000+0  94519-4 0  9992
2 41789  97.9198 180.8136 0026704 267.6593  92.1553 14.64642231300739
LISHUI 1-01             
1 41845U 16066E   22133.42443282  .00022882  00000+0  24745-2 0  9996
2 41845  98.7315 261.8323 0233701 178.7385 181.4524 14.70338709291679
CARTOSAT-2D             
1 41948U 17008A   22133.12407125  .00003421  00000+0  16553-3 0  9997
2 41948  97.4674 193.1814 0007590  93.7576 266.4533 15.19235997290438
NAYIF-1 (EO-88)         
1 42017U 17008BX  22132.16709589  .00015407  00000+0  47964-3 0  9994
2 42017  97.2714 198.8328 0005170  35.9417 324.2173 15.33363245291512
ZHUHAI-1 02 (CAS-4B)    
1 42759U 17034B   22133.43672039  .00002794  00000+0  17442-3 0  9999
2 42759  43.0165 165.6740 0007709  61.6932  78.2947 15.11625403271057
ZHUHAI-1 01 (CAS-4A)    
1 42761U 17034D   22133.47484881  .00002831  00000+0  17611-3 0  9992
2 42761  43.0165 164.2760 0008136  63.8167  77.3929 15.11717341271060
UCLSAT                  
1 42765U 17036A   22132.86128919  .00014006  00000+0  50120-3 0  9996
2 42765  97.2016 176.6538 0011603  93.7819 266.4748 15.28825820272419
NIUSAT                  
1 42766U 17036B   22133.05308510  .00010339  00000+0  40726-3 0  9992
2 42766  97.2056 172.1475 0015824  93.9662 266.3386 15.25667107271406
CARTOSAT-2E             
1 42767U 17036C   22133.48994802  .00003531  00000+0  17070-3 0  9997
2 42767  97.4563 194.4414 0008730 135.3120 322.9766 15.19238819271059
LITUANICASAT-2          
1 42768U 17036D   22133.12853088  .00025860  00000+0  79345-3 0  9991
2 42768  97.2100 179.2832 0012699  81.0158 279.2522 15.33650965271833
AALTO-1                 
1 42775U 17036L   22133.33782363  .00008119  00000+0  32631-3 0  9994
2 42775  97.2012 172.4007 0014627  92.2380 268.0533 15.25082291271421
URSA MAIOR              
1 42776U 17036M   22133.06853494  .00008765  00000+0  34694-3 0  9997
2 42776  97.2027 172.8357 0014295  92.2448 268.0428 15.25574021271415
COMPASS 2               
1 42777U 17036N   22133.35183189  .00018810  00000+0  62451-3 0  9991
2 42777  97.2087 179.0253 0011645  83.0909 277.1657 15.31199558271771
MAX VALIER SAT          
1 42778U 17036P   22132.86486253  .00009807  00000+0  37936-3 0  9991
2 42778  97.2094 175.1964 0013144  94.3969 265.8772 15.26322620271474
PEGASUS                 
1 42784U 17036V   22133.35277141  .00011943  00000+0  43797-3 0  9993
2 42784  97.2027 176.4335 0012311  94.4364 265.8283 15.28050533271658
NUDTSAT                 
1 42787U 17036Y   22132.92066371  .00017654  00000+0  56883-3 0  9994
2 42787  97.2064 179.8566 0010978  86.7744 273.4754 15.32184436271651
SUCHAI                  
1 42788U 17036Z   22132.60229601  .00014550  00000+0  50858-3 0  9995
2 42788  97.2039 177.2455 0011628  93.3848 266.8723 15.29585286271707
SKCUBE                  
1 42789U 17036AA  22132.84433511  .00013427  00000+0  47877-3 0  9998
2 42789  97.2037 176.9860 0011672  93.3212 266.9364 15.28952037271631
VZLUSAT-1               
1 42790U 17036AB  22132.86006260  .00020620  00000+0  66592-3 0  9997
2 42790  97.2062 179.7723 0010398  88.5473 271.6960 15.32086373271797
ROBUSTA-1B              
1 42792U 17036AD  22133.40006236  .00014523  00000+0  51013-3 0  9990
2 42792  97.2033 178.0614 0011188  91.7851 268.4671 15.29428993271766
D-SAT                   
1 42794U 17036AF  22133.01603959  .00001503  00000+0  13187-3 0  9998
2 42794  97.4524 140.3025 0122872 203.1187 156.4478 14.92449462266226
NORSAT 2                
1 42828U 17042D   22133.16791079  .00002383  00000+0  23579-3 0  9993
2 42828  97.4351 351.4901 0015561 118.9423 241.3360 14.92659318262887
TECHNOSAT               
1 42829U 17042E   22133.47333907  .00001430  00000+0  14676-3 0  9990
2 42829  97.4254 349.6478 0015371 121.1143 239.1587 14.91761006262874
2017-042F               
1 42830U 17042F   22133.18605027  .00004680  00000+0  43658-3 0  9997
2 42830  97.4402 353.5378 0015046 111.8791 248.4032 14.94581599263013
FLYING LAPTOP           
1 42831U 17042G   22132.77743153  .00000950  00000+0  99358-4 0  9990
2 42831  97.4281 349.3035 0015294 123.3512 236.9163 14.91703674262772
CORVUS BC2              
1 42846U 17042X   22133.15925574  .00001520  00000+0  15191-3 0  9994
2 42846  97.4276 352.4600 0010968 111.6639 248.5750 14.92787527263017
CORVUS BC1              
1 42847U 17042Y   22133.17532332  .00001337  00000+0  13393-3 0  9991
2 42847  97.4278 352.7744 0010629 110.5004 249.7358 14.92894128263024
SIMPL                   
1 42983U 98067NF  22133.13047567  .00114507  00000+0  39054-3 0  9991
2 42983  51.6329   8.2659 0004236 169.7897 190.3195 15.88926754259308
CZ-4C R/B               
1 43012U 17072C   22133.36976652  .00000391  00000+0  90441-4 0  9996
2 43012  98.7005 167.9705 0128349  65.0419 296.4048 14.56321150238754
RADFXSAT (FOX-1B)       
1 43017U 17073E   22132.70512001  .00004046  00000+0  30984-3 0  9999
2 43017  97.6794  28.3541 0248196 305.1520  52.6663 14.81160167241828
EAGLESAT 1              
1 43018U 17073F   22132.70044729  .00006152  00000+0  45364-3 0  9995
2 43018  97.6822  29.9889 0241317 299.5342  58.2007 14.83235847241799
INS-1C                  
1 43116U 18004F   22133.51417131  .00012202  00000+0  43403-3 0  9995
2 43116  97.3775 209.8023 0009651 116.3985 243.8246 15.29081325240992
FLOCK 3P'-3             
1 43119U 18004J   22132.65199359  .00005416  00000+0  20861-3 0  9993
2 43119  97.3763 207.1292 0010896 126.4801 233.7444 15.26717021240751
FLOCK 3P'-2             
1 43120U 18004K   22132.45138379  .00007534  00000+0  29337-3 0  9998
2 43120  97.3771 206.5672 0010635 129.0601 231.1585 15.26221799240698
FLOCK 3P'-1             
1 43121U 18004L   22133.49338082  .00025944  00000+0  77261-3 0  9991
2 43121  97.3785 211.9673 0008805 114.4112 245.8050 15.34641717241073
FLOCK 3P'-4             
1 43122U 18004M   22132.63467764  .00007690  00000+0  29925-3 0  9999
2 43122  97.3778 206.9125 0010703 130.2128 230.0048 15.26234292240726
MICROMAS-2A             
1 43131U 18004W   22133.48804654  .00023965  00000+0  71764-3 0  9997
2 43131  97.3769 212.7224 0008158 117.6308 242.5764 15.34487565241211
PICSAT                  
1 43132U 18004X   22133.19921519  .00015542  00000+0  53026-3 0  9999
2 43132  97.3731 209.7910 0009372 122.2969 237.9181 15.30386459241018
CNUSAIL-1               
1 43133U 18004Y   22133.46832397  .00010321  00000+0  38053-3 0  9998
2 43133  97.3693 208.2074 0009957 124.0647 236.1539 15.27944040240944
2018-004Z               
1 43134U 18004Z   22132.58475005  .00011943  00000+0  42199-3 0  9997
2 43134  97.3718 208.5326 0009519 125.3405 234.8726 15.29305432240880
FOX-1D (AO-92)          
1 43137U 18004AC  22133.14957690  .00011406  00000+0  41159-3 0  9997
2 43137  97.3700 208.6391 0009387 124.3237 235.8893 15.28627862240948
STEP CUBE LAB           
1 43138U 18004AD  22132.45852741  .00019101  00000+0  60228-3 0  9990
2 43138  97.3763 211.1787 0008495 122.9453 237.2607 15.32889731241028
XIAOXIANG-2             
1 43155U 18008A   22133.57037478  .00006288  00000+0  34116-3 0  9998
2 43155  97.3547 193.0956 0014702 264.3089 231.8777 15.14805344237994
ZHOU ENLAI              
1 43156U 18008B   22133.50903706  .00006524  00000+0  35669-3 0  9995
2 43156  97.3597 192.9020 0012094 264.6882 202.7724 15.14548751237913
QUANTUTONG 1            
1 43158U 18008D   22133.12867422  .00005429  00000+0  30545-3 0  9990
2 43158  97.3547 190.5832 0011289 267.9861 145.2621 15.13607058237768
